COSMOS 2433 (720)       
1 32275U 07052A   22095.09952030 -.00000086  00000+0  00000+0 0  9992
2 32275  66.0836   7.1038 0003040 288.0073 218.0488  2.13104044112402
COSMOS 2432 (719)       
1 32276U 07052B   22095.18360569 -.00000086  00000+0  00000+0 0  9993
2 32276  66.0973   7.2004 0011670 331.0772 188.0060  2.13103492112400
COSMOS 2434 (721)       
1 32393U 07065A   22095.61526178  .00000030  00000+0  00000+0 0  9993
2 32393  64.3987 243.9108 0004788  80.0510 350.9684  2.13103068111122
COSMOS 2436 (723)       
1 32395U 07065C   22095.35919659  .00000028  00000+0  00000+0 0  9993
2 32395  64.4073 243.9761 0016087   7.5142   2.9775  2.13102920111059
COSMOS 2456 (730)       
1 36111U 09070A   22095.31019557  .00000029  00000+0  00000+0 0  9996
2 36111  64.3338 123.5659 0005598 300.6489  62.9193  2.13099184 95785
COSMOS 2457 (733)       
1 36112U 09070B   22095.21068918  .00000029  00000+0  00000+0 0  9991
2 36112  64.3168 123.4454 0004626 191.9840 221.9585  2.13101370 95785
COSMOS 2461 (735)       
1 36401U 10007B   22095.13271888 -.00000086  00000+0  00000+0 0  9991
2 36401  65.9703   5.9517 0022071   5.0715  23.9540  2.13103796 94135
COSMOS 2460 (732)       
1 36402U 10007C   22095.39302188 -.00000086  00000+0  00000+0 0  9998
2 36402  65.9570   5.8938 0002219 353.6595 182.7909  2.13106401 94133
COSMOS 2464 (736)       
1 37139U 10041C   22095.32395470  .00000027  00000+0  00000+0 0  9997
2 37139  63.9981 243.0328 0029799  13.8091  52.5010  2.13100678 90191
COSMOS 2476 (744)       
1 37867U 11064A   22095.39552072  .00000029  00000+0  00000+0 0  9993
2 37867  64.6238 124.8905 0022974 240.0772  93.8350  2.13101865 81124
COSMOS 2477 (745)       
1 37868U 11064B   22095.40194300  .00000029  00000+0  00000+0 0  9992
2 37868  64.6313 124.9547 0020307 241.2256 275.7648  2.13101687 81088
COSMOS 2475 (743)       
1 37869U 11064C   22095.46447936  .00000029  00000+0  00000+0 0  9995
2 37869  64.6385 124.9591 0024676 257.6356 265.2703  2.13101898 81093
COSMOS 2485 (747)       
1 39155U 13019A   22095.32627772  .00000030  00000+0  00000+0 0  9992
2 39155  64.7877 125.3059 0023296 235.9285  89.2620  2.13101865 69598
COSMOS 2492 (754)       
1 39620U 14012A   22095.52182036 -.00000086  00000+0  00000+0 0  9996
2 39620  65.8440   5.5811 0014715 327.5471 182.2070  2.13103183 62556
COSMOS 2500 (755)       
1 40001U 14032A   22095.19612615 -.00000086  00000+0  00000+0 0  9997
2 40001  65.7831   5.4586 0004704 215.5331 263.2193  2.13102448 60760
COSMOS 2501 (702K)      
1 40315U 14075A   22095.32975840  .00000027  00000+0  00000+0 0  9993
2 40315  63.7064 243.7292 0016755 205.4281 183.4681  2.13101361 57175
COSMOS 2514 (751)       
1 41330U 16008A   22094.92538601 -.00000087  00000+0  00000+0 0  9991
2 41330  65.5844   5.1789 0008456 221.5158 233.2297  2.13102798 47925
COSMOS 2516 (753)       
1 41554U 16032A   22095.18912855  .00000026  00000+0  00000+0 0  9994
2 41554  63.9321 243.9898 0012540 211.1529 347.1884  2.13106064 45536
COSMOS 2522 (752)       
1 42939U 17055A   22094.83817671  .00000024  00000+0  00000+0 0  9997
2 42939  64.1666 244.3753 0005372 239.1293 267.9868  2.13101897 35288
COSMOS 2527 (756)       
1 43508U 18053A   22094.71519329  .00000031  00000+0  00000+0 0  9993
2 43508  64.9510 125.3104 0009506 239.5603 205.3150  2.13102551 29570
COSMOS 2529 (757)       
1 43687U 18086A   22094.69981176  .00000023  00000+0  00000+0 0  9998
2 43687  64.3807 244.6765 0007508 272.2883  84.1904  2.13102035 26588
COSMOS 2534 (758)       
1 44299U 19030A   22094.58564081  .00000022  00000+0  00000+0 0  9997
2 44299  64.4527 244.5582 0010515 295.6328 107.8743  2.13101945 22230
COSMOS 2544 (759)       
1 44850U 19088A   22095.52891527  .00000030  00000+0  00000+0 0  9995
2 44850  64.9364 125.1377 0014335 262.4647 130.1939  2.13102321 18020
COSMOS 2545 (760)       
1 45358U 20018A   22095.38567697 -.00000088  00000+0  00000+0 0  9990
2 45358  64.9214   5.8306 0008591 261.5076 230.8436  2.13102663 15977
COSMOS 2547 (705K)      
1 46805U 20075A   22095.40813105  .00000029  00000+0  00000+0 0  9996
2 46805  64.6761 243.9330 0005402 244.0302 117.8944  2.13103048 11227
